[
    {
        "Altitude(m)": 715251.6492667631,
        "Argument of Periapsis(deg)": 0.0034170363559881197,
        "Eccentricity": 0.0,
        "Inclination(deg)": 45.0,
        "Latitude(deg)": -38.801828923317515,
        "Longitude(deg)": -168.31780224761124,
        "Mean Anomaly(deg)": -61.994535005755786,
        "RAAN(deg)": 344.99677441756256,
        "Satellite Name": "Constellation 1 1536",
        "Satellite Number": 1536,
        "Semi-Major Axis(m)": 7083131.272910544,
        "Time(s)": 57
    },
    {
        "Altitude(m)": 715240.9862538618,
        "Argument of Periapsis(deg)": 0.003476984362233526,
        "Eccentricity": 0.0,
        "Inclination(deg)": 45.0,
        "Latitude(deg)": -38.77602573189047,
        "Longitude(deg)": -168.25172675239688,
        "Mean Anomaly(deg)": -61.933833865505854,
        "RAAN(deg)": 344.996717828397,
        "Satellite Name": "Constellation 1 1536",
        "Satellite Number": 1536,
        "Semi-Major Axis(m)": 7083131.272910544,
        "Time(s)": 58
    },
    {
        "Altitude(m)": 715230.3065101787,
        "Argument of Periapsis(deg)": 0.003536932368478932,
        "Eccentricity": 0.0,
        "Inclination(deg)": 45.0,
        "Latitude(deg)": -38.75018028343811,
        "Longitude(deg)": -168.1857018837842,
        "Mean Anomaly(deg)": -61.873132725255914,
        "RAAN(deg)": 344.99666123923146,
        "Satellite Name": "Constellation 1 1536",
        "Satellite Number": 1536,
        "Semi-Major Axis(m)": 7083131.272910544,
        "Time(s)": 59
    },
    {
        "Altitude(m)": 715219.610074519,
        "Argument of Periapsis(deg)": 0.003596880374724337,
        "Eccentricity": 0.0,
        "Inclination(deg)": 45.0,
        "Latitude(deg)": -38.72429264626279,
        "Longitude(deg)": -168.1197273048059,
        "Mean Anomaly(deg)": -61.81243158500603,
        "RAAN(deg)": 344.9966046500658,
        "Satellite Name": "Constellation 1 1536",
        "Satellite Number": 1536,
        "Semi-Major Axis(m)": 7083131.272910544,
        "Time(s)": 60
    },
    {
        "Altitude(m)": 715208.8969857553,
        "Argument of Periapsis(deg)": 0.0036568283809697427,
        "Eccentricity": 0.0,
        "Inclination(deg)": 45.0,
        "Latitude(deg)": -38.698362888645285,
        "Longitude(deg)": -168.05380318240688,
        "Mean Anomaly(deg)": -61.7517304447562,
        "RAAN(deg)": 344.9965480609003,
        "Satellite Name": "Constellation 1 1536",
        "Satellite Number": 1536,
        "Semi-Major Axis(m)": 7083131.272910544,
        "Time(s)": 61
    },
    {
        "Altitude(m)": 715198.1672828097,
        "Argument of Periapsis(deg)": 0.003716776387215149,
        "Eccentricity": 0.0,
        "Inclination(deg)": 45.0,
        "Latitude(deg)": -38.672391078845834,
        "Longitude(deg)": -167.9879295150576,
        "Mean Anomaly(deg)": -61.6910293045062,
        "RAAN(deg)": 344.9964914717347,
        "Satellite Name": "Constellation 1 1536",
        "Satellite Number": 1536,
        "Semi-Major Axis(m)": 7083131.272910544,
        "Time(s)": 62
    },
    {
        "Altitude(m)": 715187.4210046616,
        "Argument of Periapsis(deg)": 0.003776724393460554,
        "Eccentricity": 0.0,
        "Inclination(deg)": 45.0,
        "Latitude(deg)": -38.64637728510336,
        "Longitude(deg)": -167.92210630085248,
        "Mean Anomaly(deg)": -61.63032816425627,
        "RAAN(deg)": 344.99643488256913,
        "Satellite Name": "Constellation 1 1536",
        "Satellite Number": 1536,
        "Semi-Major Axis(m)": 7083131.272910544,
        "Time(s)": 63
    },
    {
        "Altitude(m)": 715176.6581903466,
        "Argument of Periapsis(deg)": 0.003836672399705959,
        "Eccentricity": 0.0,
        "Inclination(deg)": 45.0,
        "Latitude(deg)": -38.62032157563498,
        "Longitude(deg)": -167.85633353751192,
        "Mean Anomaly(deg)": -61.56962702400648,
        "RAAN(deg)": 344.99637829340355,
        "Satellite Name": "Constellation 1 1536",
        "Satellite Number": 1536,
        "Semi-Major Axis(m)": 7083131.272910544,
        "Time(s)": 64
    },
    {
        "Altitude(m)": 715165.8788789702,
        "Argument of Periapsis(deg)": 0.003896620405951365,
        "Eccentricity": 0.0,
        "Inclination(deg)": 45.0,
        "Latitude(deg)": -38.59422401863508,
        "Longitude(deg)": -167.79061122238218,
        "Mean Anomaly(deg)": -61.50892588375655,
        "RAAN(deg)": 344.99632170423797,
        "Satellite Name": "Constellation 1 1536",
        "Satellite Number": 1536,
        "Semi-Major Axis(m)": 7083131.272910544,
        "Time(s)": 65
    },
    {
        "Altitude(m)": 715155.083109676,
        "Argument of Periapsis(deg)": 0.003956568412196771,
        "Eccentricity": 0.0,
        "Inclination(deg)": 45.0,
        "Latitude(deg)": -38.56808468227558,
        "Longitude(deg)": -167.72493935243872,
        "Mean Anomaly(deg)": -61.44822474350661,
        "RAAN(deg)": 344.99626511507245,
        "Satellite Name": "Constellation 1 1536",
        "Satellite Number": 1536,
        "Semi-Major Axis(m)": 7083131.272910544,
        "Time(s)": 66
    },
    {
        "Altitude(m)": 715144.2709216765,
        "Argument of Periapsis(deg)": 0.004016516418442176,
        "Eccentricity": 0.0,
        "Inclination(deg)": 45.0,
        "Latitude(deg)": -38.541903634704774,
        "Longitude(deg)": -167.65931809238387,
        "Mean Anomaly(deg)": -61.387523603256774,
        "RAAN(deg)": 344.99620852590687,
        "Satellite Name": "Constellation 1 1536",
        "Satellite Number": 1536,
        "Semi-Major Axis(m)": 7083131.272910544,
        "Time(s)": 67
    },
    {
        "Altitude(m)": 715133.4423542353,
        "Argument of Periapsis(deg)": 0.004076464424687581,
        "Eccentricity": 0.0,
        "Inclination(deg)": 45.0,
        "Latitude(deg)": -38.5156809440478,
        "Longitude(deg)": -167.59374710225904,
        "Mean Anomaly(deg)": -61.32682246300684,
        "RAAN(deg)": 344.9961519367413,
        "Satellite Name": "Constellation 1 1536",
        "Satellite Number": 1536,
        "Semi-Major Axis(m)": 7083131.272910544,
        "Time(s)": 68
    },
    {
        "Altitude(m)": 715122.5974466755,
        "Argument of Periapsis(deg)": 0.004136412430932987,
        "Eccentricity": 0.0,
        "Inclination(deg)": 45.0,
        "Latitude(deg)": -38.48941667840494,
        "Longitude(deg)": -167.52822654603034,
        "Mean Anomaly(deg)": -61.266121322756895,
        "RAAN(deg)": 344.9960953475757,
        "Satellite Name": "Constellation 1 1536",
        "Satellite Number": 1536,
        "Semi-Major Axis(m)": 7083131.272910544,
        "Time(s)": 69
    },
    {
        "Altitude(m)": 715111.7362383755,
        "Argument of Periapsis(deg)": 0.004196360437178394,
        "Eccentricity": 0.0,
        "Inclination(deg)": 45.0,
        "Latitude(deg)": -38.46311090585201,
        "Longitude(deg)": -167.4627564192005,
        "Mean Anomaly(deg)": -61.20542018250706,
        "RAAN(deg)": 344.9960387584101,
        "Satellite Name": "Constellation 1 1536",
        "Satellite Number": 1536,
        "Semi-Major Axis(m)": 7083131.272910544,
        "Time(s)": 70
    },
    {
        "Altitude(m)": 715100.8587687709,
        "Argument of Periapsis(deg)": 0.004256308443423799,
        "Eccentricity": 0.0,
        "Inclination(deg)": 45.0,
        "Latitude(deg)": -38.43676369443959,
        "Longitude(deg)": -167.3973367169076,
        "Mean Anomaly(deg)": -61.14471904225717,
        "RAAN(deg)": 344.9959821692446,
        "Satellite Name": "Constellation 1 1536",
        "Satellite Number": 1536,
        "Semi-Major Axis(m)": 7083131.272910544,
        "Time(s)": 71
    },
    {
        "Altitude(m)": 715089.9650773465,
        "Argument of Periapsis(deg)": 0.004316256449669204,
        "Eccentricity": 0.0,
        "Inclination(deg)": 45.0,
        "Latitude(deg)": -38.410375112192625,
        "Longitude(deg)": -167.33196743392665,
        "Mean Anomaly(deg)": -61.08401790200719,
        "RAAN(deg)": 344.995925580079,
        "Satellite Name": "Constellation 1 1536",
        "Satellite Number": 1536,
        "Semi-Major Axis(m)": 7083131.272910544,
        "Time(s)": 72
    },
    {
        "Altitude(m)": 715079.0552036535,
        "Argument of Periapsis(deg)": 0.00437620445591461,
        "Eccentricity": 0.0,
        "Inclination(deg)": 45.0,
        "Latitude(deg)": -38.38394522711012,
        "Longitude(deg)": -167.26664856467127,
        "Mean Anomaly(deg)": -61.02331676175736,
        "RAAN(deg)": 344.99586899091344,
        "Satellite Name": "Constellation 1 1536",
        "Satellite Number": 1536,
        "Semi-Major Axis(m)": 7083131.272910544,
        "Time(s)": 73
    },
    {
        "Altitude(m)": 715068.129187287,
        "Argument of Periapsis(deg)": 0.004436152462160016,
        "Eccentricity": 0.0,
        "Inclination(deg)": 45.0,
        "Latitude(deg)": -38.357474107164116,
        "Longitude(deg)": -167.20138027129153,
        "Mean Anomaly(deg)": -60.96261562150747,
        "RAAN(deg)": 344.99581240174786,
        "Satellite Name": "Constellation 1 1536",
        "Satellite Number": 1536,
        "Semi-Major Axis(m)": 7083131.272910544,
        "Time(s)": 74
    },
    {
        "Altitude(m)": 715057.187067913,
        "Argument of Periapsis(deg)": 0.0044961004684054215,
        "Eccentricity": 0.0,
        "Inclination(deg)": 45.0,
        "Latitude(deg)": -38.33096182030061,
        "Longitude(deg)": -167.13616221128763,
        "Mean Anomaly(deg)": -60.901914481257535,
        "RAAN(deg)": 344.9957558125823,
        "Satellite Name": "Constellation 1 1536",
        "Satellite Number": 1536,
        "Semi-Major Axis(m)": 7083131.272910544,
        "Time(s)": 75
    }
]